[{"OBJECT_NAME":"STARLINK-30343","OBJECT_ID":"2023-131X","EPOCH":"2025-09-06T23:41:30.313824","MEAN_MOTION":15.0253917,"ECCENTRICITY":0.00011903,"INCLINATION":43.003,"RA_OF_ASC_NODE":89.7093,"ARG_OF_PERICENTER":268.1298,"MEAN_ANOMALY":91.9408,"EPHEMERIS_TYPE":0,"CLASSIFICATION_TYPE":"U","NORAD_CAT_ID":57753,"ELEMENT_SET_NO":999,"REV_AT_EPOCH":11229,"BSTAR":7.4214317e-5,"MEAN_MOTION_DOT":7.99e-6,"MEAN_MOTION_DDOT":0},{"OBJECT_NAME":"STARLINK-30397","OBJECT_ID":"2023-134A","EPOCH":"2025-09-06T23:45:37.537920","MEAN_MOTION":15.02541716,"ECCENTRICITY":0.00011707,"INCLINATION":43.0047,"RA_OF_ASC_NODE":116.0592,"ARG_OF_PERICENTER":272.289,"MEAN_ANOMALY":87.7818,"EPHEMERIS_TYPE":0,"CLASSIFICATION_TYPE":"U","NORAD_CAT_ID":57771,"ELEMENT_SET_NO":999,"REV_AT_EPOCH":11183,"BSTAR":-5.3126235e-5,"MEAN_MOTION_DOT":-9.21e-6,"MEAN_MOTION_DDOT":0},{"OBJECT_NAME":"STARLINK-30354","OBJECT_ID":"2023-134B","EPOCH":"2025-09-07T00:04:38.310816","MEAN_MOTION":15.0255371,"ECCENTRICITY":0.00015963,"INCLINATION":43.0023,"RA_OF_ASC_NODE":115.2973,"ARG_OF_PERICENTER":256.6797,"MEAN_ANOMALY":103.3868,"EPHEMERIS_TYPE":0,"CLASSIFICATION_TYPE":"U","NORAD_CAT_ID":57772,"ELEMENT_SET_NO":999,"REV_AT_EPOCH":11184,"BSTAR":0.00023234941,"MEAN_MOTION_DOT":2.938e-5,"MEAN_MOTION_DDOT":0},{"OBJECT_NAME":"STARLINK-30383","OBJECT_ID":"2023-134C","EPOCH":"2025-09-07T01:16:33.269376","MEAN_MOTION":15.02552383,"ECCENTRICITY":0.00014141,"INCLINATION":43.0029,"RA_OF_ASC_NODE":115.6737,"ARG_OF_PERICENTER":270.0828,"MEAN_ANOMALY":89.9852,"EPHEMERIS_TYPE":0,"CLASSIFICATION_TYPE":"U","NORAD_CAT_ID":57773,"ELEMENT_SET_NO":999,"REV_AT_EPOCH":11184,"BSTAR":2.4493534e-5,"MEAN_MOTION_DOT":1.27e-6,"MEAN_MOTION_DDOT":0},{"OBJECT_NAME":"STARLINK-30384","OBJECT_ID":"2023-134D","EPOCH":"2025-09-06T23:31:14.534112","MEAN_MOTION":15.02540901,"ECCENTRICITY":0.00016734,"INCLINATION":43.0033,"RA_OF_ASC_NODE":115.9858,"ARG_OF_PERICENTER":281.6687,"MEAN_ANOMALY":78.3967,"EPHEMERIS_TYPE":0,"CLASSIFICATION_TYPE":"U","NORAD_CAT_ID":57774,"ELEMENT_SET_NO":999,"REV_AT_EPOCH":11183,"BSTAR":-0.00028266595,"MEAN_MOTION_DOT":-4.02e-5,"MEAN_MOTION_DDOT":0},{"OBJECT_NAME":"STARLINK-30305","OBJECT_ID":"2023-134E","EPOCH":"2025-09-06T23:36:02.290176","MEAN_MOTION":15.02534016,"ECCENTRICITY":0.0001401,"INCLINATION":43.0034,"RA_OF_ASC_NODE":116.0083,"ARG_OF_PERICENTER":260.0835,"MEAN_ANOMALY":99.9849,"EPHEMERIS_TYPE":0,"CLASSIFICATION_TYPE":"U","NORAD_CAT_ID":57775,"ELEMENT_SET_NO":999,"REV_AT_EPOCH":11183,"BSTAR":0.00013014791,"MEAN_MOTION_DOT":1.555e-5,"MEAN_MOTION_DDOT":0},{"OBJECT_NAME":"STARLINK-30360","OBJECT_ID":"2023-134F","EPOCH":"2025-09-06T23:26:26.660544","MEAN_MOTION":15.02540291,"ECCENTRICITY":0.00012045,"INCLINATION":43.0022,"RA_OF_ASC_NODE":115.9594,"ARG_OF_PERICENTER":280.8028,"MEAN_ANOMALY":79.2679,"EPHEMERIS_TYPE":0,"CLASSIFICATION_TYPE":"U","NORAD_CAT_ID":57776,"ELEMENT_SET_NO":999,"REV_AT_EPOCH":11183,"BSTAR":7.0816521e-5,"MEAN_MOTION_DOT":7.53e-6,"MEAN_MOTION_DDOT":0},{"OBJECT_NAME":"STARLINK-30355","OBJECT_ID":"2023-134G","EPOCH":"2025-09-07T00:52:34.411296","MEAN_MOTION":15.02556236,"ECCENTRICITY":0.00010554,"INCLINATION":43.0028,"RA_OF_ASC_NODE":115.5217,"ARG_OF_PERICENTER":286.4366,"MEAN_ANOMALY":73.636,"EPHEMERIS_TYPE":0,"CLASSIFICATION_TYPE":"U","NORAD_CAT_ID":57777,"ELEMENT_SET_NO":999,"REV_AT_EPOCH":11183,"BSTAR":3.2379395e-5,"MEAN_MOTION_DOT":2.34e-6,"MEAN_MOTION_DDOT":0},{"OBJECT_NAME":"STARLINK-30385","OBJECT_ID":"2023-134H","EPOCH":"2025-09-06T23:46:01.457760","MEAN_MOTION":15.02516233,"ECCENTRICITY":0.00013069,"INCLINATION":43.0044,"RA_OF_ASC_NODE":103.206,"ARG_OF_PERICENTER":240.2216,"MEAN_ANOMALY":119.8497,"EPHEMERIS_TYPE":0,"CLASSIFICATION_TYPE":"U","NORAD_CAT_ID":57778,"ELEMENT_SET_NO":999,"REV_AT_EPOCH":11182,"BSTAR":0.00049331555,"MEAN_MOTION_DOT":6.463e-5,"MEAN_MOTION_DDOT":0},{"OBJECT_NAME":"STARLINK-30359","OBJECT_ID":"2023-134J","EPOCH":"2025-09-06T23:36:26.143488","MEAN_MOTION":15.02546288,"ECCENTRICITY":0.00010912,"INCLINATION":43.003,"RA_OF_ASC_NODE":103.1909,"ARG_OF_PERICENTER":270.3718,"MEAN_ANOMALY":89.6999,"EPHEMERIS_TYPE":0,"CLASSIFICATION_TYPE":"U","NORAD_CAT_ID":57779,"ELEMENT_SET_NO":999,"REV_AT_EPOCH":11198,"BSTAR":0.0002404444,"MEAN_MOTION_DOT":3.047e-5,"MEAN_MOTION_DDOT":0},{"OBJECT_NAME":"STARLINK-30380","OBJECT_ID":"2023-134K","EPOCH":"2025-09-07T00:14:13.577568","MEAN_MOTION":15.02543951,"ECCENTRICITY":0.00015818,"INCLINATION":43.0031,"RA_OF_ASC_NODE":115.3413,"ARG_OF_PERICENTER":252.9259,"MEAN_ANOMALY":107.1411,"EPHEMERIS_TYPE":0,"CLASSIFICATION_TYPE":"U","NORAD_CAT_ID":57780,"ELEMENT_SET_NO":999,"REV_AT_EPOCH":11184,"BSTAR":0.00025073522,"MEAN_MOTION_DOT":3.186e-5,"MEAN_MOTION_DDOT":0},{"OBJECT_NAME":"STARLINK-30369","OBJECT_ID":"2023-134L","EPOCH":"2025-09-07T00:47:47.258304","MEAN_MOTION":15.02538972,"ECCENTRICITY":8.864e-5,"INCLINATION":43.0013,"RA_OF_ASC_NODE":115.5111,"ARG_OF_PERICENTER":249.0911,"MEAN_ANOMALY":110.9836,"EPHEMERIS_TYPE":0,"CLASSIFICATION_TYPE":"U","NORAD_CAT_ID":57781,"ELEMENT_SET_NO":999,"REV_AT_EPOCH":11184,"BSTAR":8.0539173e-5,"MEAN_MOTION_DOT":8.85e-6,"MEAN_MOTION_DDOT":0},{"OBJECT_NAME":"STARLINK-30376","OBJECT_ID":"2023-134M","EPOCH":"2025-09-07T00:19:01.231680","MEAN_MOTION":15.02542812,"ECCENTRICITY":0.00015794,"INCLINATION":43.0032,"RA_OF_ASC_NODE":115.3751,"ARG_OF_PERICENTER":255.4025,"MEAN_ANOMALY":104.6642,"EPHEMERIS_TYPE":0,"CLASSIFICATION_TYPE":"U","NORAD_CAT_ID":57782,"ELEMENT_SET_NO":999,"REV_AT_EPOCH":11184,"BSTAR":0.00018972421,"MEAN_MOTION_DOT":2.36e-5,"MEAN_MOTION_DDOT":0},{"OBJECT_NAME":"STARLINK-30389","OBJECT_ID":"2023-134N","EPOCH":"2025-09-07T00:38:11.722848","MEAN_MOTION":15.02543805,"ECCENTRICITY":9.67e-5,"INCLINATION":43.0025,"RA_OF_ASC_NODE":115.4717,"ARG_OF_PERICENTER":274.3252,"MEAN_ANOMALY":85.748,"EPHEMERIS_TYPE":0,"CLASSIFICATION_TYPE":"U","NORAD_CAT_ID":57783,"ELEMENT_SET_NO":999,"REV_AT_EPOCH":11184,"BSTAR":0.00017179464,"MEAN_MOTION_DOT":2.118e-5,"MEAN_MOTION_DDOT":0},{"OBJECT_NAME":"STARLINK-30388","OBJECT_ID":"2023-134P","EPOCH":"2025-09-07T00:33:25.554816","MEAN_MOTION":15.02530743,"ECCENTRICITY":0.00014785,"INCLINATION":43.0045,"RA_OF_ASC_NODE":115.4469,"ARG_OF_PERICENTER":277.1058,"MEAN_ANOMALY":82.9616,"EPHEMERIS_TYPE":0,"CLASSIFICATION_TYPE":"U","NORAD_CAT_ID":57784,"ELEMENT_SET_NO":999,"REV_AT_EPOCH":11184,"BSTAR":4.331404e-5,"MEAN_MOTION_DOT":3.81e-6,"MEAN_MOTION_DDOT":0},{"OBJECT_NAME":"STARLINK-30381","OBJECT_ID":"2023-134Q","EPOCH":"2025-09-06T22:24:05.765184","MEAN_MOTION":15.02543184,"ECCENTRICITY":0.00014394,"INCLINATION":43.0033,"RA_OF_ASC_NODE":115.5422,"ARG_OF_PERICENTER":256.5708,"MEAN_ANOMALY":103.4974,"EPHEMERIS_TYPE":0,"CLASSIFICATION_TYPE":"U","NORAD_CAT_ID":57785,"ELEMENT_SET_NO":999,"REV_AT_EPOCH":11183,"BSTAR":0.00019965026,"MEAN_MOTION_DOT":2.495e-5,"MEAN_MOTION_DDOT":0},{"OBJECT_NAME":"STARLINK-30382","OBJECT_ID":"2023-134R","EPOCH":"2025-09-07T00:28:37.403904","MEAN_MOTION":15.02537883,"ECCENTRICITY":0.00011294,"INCLINATION":43.002,"RA_OF_ASC_NODE":115.4215,"ARG_OF_PERICENTER":281.0209,"MEAN_ANOMALY":79.0506,"EPHEMERIS_TYPE":0,"CLASSIFICATION_TYPE":"U","NORAD_CAT_ID":57786,"ELEMENT_SET_NO":999,"REV_AT_EPOCH":11184,"BSTAR":0.00028318154,"MEAN_MOTION_DOT":3.624e-5,"MEAN_MOTION_DDOT":0},{"OBJECT_NAME":"STARLINK-30378","OBJECT_ID":"2023-134S","EPOCH":"2025-09-07T01:30:46.349280","MEAN_MOTION":15.02519882,"ECCENTRICITY":8.429e-5,"INCLINATION":43.0031,"RA_OF_ASC_NODE":114.8849,"ARG_OF_PERICENTER":263.3686,"MEAN_ANOMALY":96.7061,"EPHEMERIS_TYPE":0,"CLASSIFICATION_TYPE":"U","NORAD_CAT_ID":57787,"ELEMENT_SET_NO":999,"REV_AT_EPOCH":11185,"BSTAR":0.00064739036,"MEAN_MOTION_DOT":8.549e-5,"MEAN_MOTION_DDOT":0},{"OBJECT_NAME":"STARLINK-30387","OBJECT_ID":"2023-134T","EPOCH":"2025-09-06T23:41:03.842592","MEAN_MOTION":15.02538738,"ECCENTRICITY":0.00015989,"INCLINATION":43.0044,"RA_OF_ASC_NODE":102.3668,"ARG_OF_PERICENTER":258.5048,"MEAN_ANOMALY":101.5615,"EPHEMERIS_TYPE":0,"CLASSIFICATION_TYPE":"U","NORAD_CAT_ID":57788,"ELEMENT_SET_NO":999,"REV_AT_EPOCH":11199,"BSTAR":5.8303918e-5,"MEAN_MOTION_DOT":5.84e-6,"MEAN_MOTION_DDOT":0},{"OBJECT_NAME":"STARLINK-30372","OBJECT_ID":"2023-134U","EPOCH":"2025-09-07T02:51:37.247904","MEAN_MOTION":15.2758933,"ECCENTRICITY":7.449e-5,"INCLINATION":43.0006,"RA_OF_ASC_NODE":35.0857,"ARG_OF_PERICENTER":295.8924,"MEAN_ANOMALY":64.1851,"EPHEMERIS_TYPE":0,"CLASSIFICATION_TYPE":"U","NORAD_CAT_ID":57789,"ELEMENT_SET_NO":999,"REV_AT_EPOCH":11279,"BSTAR":-0.00010857821,"MEAN_MOTION_DOT":-3.249e-5,"MEAN_MOTION_DDOT":0},{"OBJECT_NAME":"STARLINK-30373","OBJECT_ID":"2023-134V","EPOCH":"2025-09-07T06:00:00.999648","MEAN_MOTION":15.70605854,"ECCENTRICITY":0.0030882,"INCLINATION":42.9866,"RA_OF_ASC_NODE":44.2289,"ARG_OF_PERICENTER":316.9964,"MEAN_ANOMALY":133.0661,"EPHEMERIS_TYPE":0,"CLASSIFICATION_TYPE":"U","NORAD_CAT_ID":57790,"ELEMENT_SET_NO":999,"REV_AT_EPOCH":592,"BSTAR":0.0083568657,"MEAN_MOTION_DOT":0.01203944,"MEAN_MOTION_DDOT":0},{"OBJECT_NAME":"STARLINK-30367","OBJECT_ID":"2023-134W","EPOCH":"2025-09-07T00:09:25.324704","MEAN_MOTION":15.02548448,"ECCENTRICITY":0.00013148,"INCLINATION":43.0014,"RA_OF_ASC_NODE":115.3201,"ARG_OF_PERICENTER":284.1878,"MEAN_ANOMALY":75.8818,"EPHEMERIS_TYPE":0,"CLASSIFICATION_TYPE":"U","NORAD_CAT_ID":57791,"ELEMENT_SET_NO":999,"REV_AT_EPOCH":11184,"BSTAR":0.00016775318,"MEAN_MOTION_DOT":2.064e-5,"MEAN_MOTION_DDOT":0},{"OBJECT_NAME":"STARLINK-30304","OBJECT_ID":"2023-138A","EPOCH":"2025-09-07T06:00:00.999648","MEAN_MOTION":15.64315383,"ECCENTRICITY":0.00281584,"INCLINATION":42.9903,"RA_OF_ASC_NODE":4.4612,"ARG_OF_PERICENTER":352.6947,"MEAN_ANOMALY":53.0192,"EPHEMERIS_TYPE":0,"CLASSIFICATION_TYPE":"U","NORAD_CAT_ID":57808,"ELEMENT_SET_NO":999,"REV_AT_EPOCH":592,"BSTAR":0.007265544,"MEAN_MOTION_DOT":0.0079991,"MEAN_MOTION_DDOT":0}]
